{"type": "FeatureCollection", "features": [ {"type": "Feature", "properties": {"norad_id": 66485, "name": "STARLINK-34774", "group": "last-30-days", "lat": 26.338025127679693, "lon": -76.54522961014311, "alt_km": 439.477540198729, "timestamp": "2025-12-10T23:33:11.622159+00:00", "meta": {"OBJECT_NAME": "STARLINK-34774", "OBJECT_ID": "2025-263A", "EPOCH": "2025-12-10T14:00:03.000384", "MEAN_MOTION": 15.43121358, "ECCENTRICITY": 0.00012768, "INCLINATION": 43.0005, "RA_OF_ASC_NODE": 137.8437, "ARG_OF_PERICENTER": 278.89, "MEAN_ANOMALY": 168.2209, "EPHEMERIS_TYPE": 0, "CLASSIFICATION_TYPE": "U", "NORAD_CAT_ID": 66485, "ELEMENT_SET_NO": 999, "REV_AT_EPOCH": 528, "BSTAR": -0.058153038, "MEAN_MOTION_DOT": -0.02348214, "MEAN_MOTION_DDOT": 0}, "tle": {"line1": "1 66485U 25263A   25344.58336806 -.02348214  00000+0 -58153-1 0  9992", "line2": "2 66485  43.0005 137.8437 0001276 278.8900 168.2209 15.43121358  5282"}}, "geometry": {"type": "Point", "coordinates": [-76.54522961014311, 26.338025127679693]}}, {"type": "Feature", "properties": {"norad_id": 66486, "name": "STARLINK-34844", "group": "last-30-days", "lat": 2.1148474259589913, "lon": -46.819415889641796, "alt_km": 414.6325912151815, "timestamp": "2025-12-10T23:33:11.622169+00:00", "meta": {"OBJECT_NAME": "STARLINK-34844", "OBJECT_ID": "2025-263B", "EPOCH": "2025-12-10T14:00:03.000384", "MEAN_MOTION": 15.50629776, "ECCENTRICITY": 0.00015463, "INCLINATION": 43.0006, "RA_OF_ASC_NODE": 137.7803, "ARG_OF_PERICENTER": 261.7259, "MEAN_ANOMALY": 210.6814, "EPHEMERIS_TYPE": 0, "CLASSIFICATION_TYPE": "U", "NORAD_CAT_ID": 66486, "ELEMENT_SET_NO": 999, "REV_AT_EPOCH": 524, "BSTAR": -0.0022374184, "MEAN_MOTION_DOT": -0.00129685, "MEAN_MOTION_DDOT": 0}, "tle": {"line1": "1 66486U 25263B   25344.58336806 -.00129685  00000+0 -22374-2 0  9997", "line2": "2 66486  43.0006 137.7803 0001546 261.7259 210.6814 15.50629776  5243"}}, "geometry": {"type": "Point", "coordinates": [-46.819415889641796, 2.1148474259589913]}}, {"type": "Feature", "properties": {"norad_id": 66487, "name": "STARLINK-34733", "group": "last-30-days", "lat": 0.800553388865302, "lon": -45.41070483288582, "alt_km": 414.61744079653, "timestamp": "2025-12-10T23:33:11.622179+00:00", "meta": {"OBJECT_NAME": "STARLINK-34733", "OBJECT_ID": "2025-263C", "EPOCH": "2025-12-10T14:00:03.000384", "MEAN_MOTION": 15.50589273, "ECCENTRICITY": 0.00014872, "INCLINATION": 43.0006, "RA_OF_ASC_NODE": 137.7771, "ARG_OF_PERICENTER": 260.419, "MEAN_ANOMALY": 213.9101, "EPHEMERIS_TYPE": 0, "CLASSIFICATION_TYPE": "U", "NORAD_CAT_ID": 66487, "ELEMENT_SET_NO": 999, "REV_AT_EPOCH": 528, "BSTAR": -0.00033566863, "MEAN_MOTION_DOT": -0.0001999, "MEAN_MOTION_DDOT": 0}, "tle": {"line1": "1 66487U 25263C   25344.58336806 -.00019990  00000+0 -33567-3 0  9992", "line2": "2 66487  43.0006 137.7771 0001487 260.4190 213.9101 15.50589273  5288"}}, "geometry": {"type": "Point", "coordinates": [-45.41070483288582, 0.800553388865302]}}, {"type": "Feature", "properties": {"norad_id": 66488, "name": "STARLINK-35515", "group": "last-30-days", "lat": -0.4971039146573597, "lon": -44.0236445797621, "alt_km": 414.97508520835527, "timestamp": "2025-12-10T23:33:11.622188+00:00", "meta": {"OBJECT_NAME": "STARLINK-35515", "OBJECT_ID": "2025-263D", "EPOCH": "2025-12-10T14:00:03.000384", "MEAN_MOTION": 15.50624203, "ECCENTRICITY": 0.00014869, "INCLINATION": 43.0005, "RA_OF_ASC_NODE": 137.7715, "ARG_OF_PERICENTER": 265.7248, "MEAN_ANOMALY": 210.5153, "EPHEMERIS_TYPE": 0, "CLASSIFICATION_TYPE": "U", "NORAD_CAT_ID": 66488, "ELEMENT_SET_NO": 999, "REV_AT_EPOCH": 528, "BSTAR": -0.0020574486, "MEAN_MOTION_DOT": -0.00119412, "MEAN_MOTION_DDOT": 0}, "tle": {"line1": "1 66488U 25263D   25344.58336806 -.00119412  00000+0 -20574-2 0  9996", "line2": "2 66488  43.0005 137.7715 0001486 265.7248 210.5153 15.50624203  5280"}}, "geometry": {"type": "Point", "coordinates": [-44.0236445797621, -0.4971039146573597]}}, {"type": "Feature", "properties": {"norad_id": 66489, "name": "STARLINK-35696", "group": "last-30-days", "lat": -1.806742946093399, "lon": -42.622658595956906, "alt_km": 415.148369524205, "timestamp": "2025-12-10T23:33:11.622197+00:00", "meta": {"OBJECT_NAME": "STARLINK-35696", "OBJECT_ID": "2025-263E", "EPOCH": "2025-12-10T14:00:03.000384", "MEAN_MOTION": 15.50625313, "ECCENTRICITY": 0.00014984, "INCLINATION": 43.0006, "RA_OF_ASC_NODE": 137.7661, "ARG_OF_PERICENTER": 267.8037, "MEAN_ANOMALY": 210.3578, "EPHEMERIS_TYPE": 0, "CLASSIFICATION_TYPE": "U", "NORAD_CAT_ID": 66489, "ELEMENT_SET_NO": 999, "REV_AT_EPOCH": 528, "BSTAR": -0.0021009502, "MEAN_MOTION_DOT": -0.00121896, "MEAN_MOTION_DDOT": 0}, "tle": {"line1": "1 66489U 25263E   25344.58336806 -.00121896  00000+0 -21010-2 0  9992", "line2": "2 66489  43.0006 137.7661 0001498 267.8037 210.3578 15.50625313  5286"}}, "geometry": {"type": "Point", "coordinates": [-42.622658595956906, -1.806742946093399]}}, {"type": "Feature", "properties": {"norad_id": 66490, "name": "STARLINK-35693", "group": "last-30-days", "lat": 2.0398125794167035, "lon": -46.73945148731051, "alt_km": 427.30917279618734, "timestamp": "2025-12-10T23:33:11.622206+00:00", "meta": {"OBJECT_NAME": "STARLINK-35693", "OBJECT_ID": "2025-263F", "EPOCH": "2025-12-10T14:00:03.000384", "MEAN_MOTION": 15.48045514, "ECCENTRICITY": 0.0001148, "INCLINATION": 43.0006, "RA_OF_ASC_NODE": 137.7674, "ARG_OF_PERICENTER": 270.7231, "MEAN_ANOMALY": 206.7571, "EPHEMERIS_TYPE": 0, "CLASSIFICATION_TYPE": "U", "NORAD_CAT_ID": 66490, "ELEMENT_SET_NO": 999, "REV_AT_EPOCH": 528, "BSTAR": -0.044202178, "MEAN_MOTION_DOT": -0.02103369, "MEAN_MOTION_DDOT": 0}, "tle": {"line1": "1 66490U 25263F   25344.58336806 -.02103369  00000+0 -44202-1 0  9998", "line2": "2 66490  43.0006 137.7674 0001148 270.7231 206.7571 15.48045514  5281"}}, "geometry": {"type": "Point", "coordinates": [-46.73945148731051, 2.0398125794167035]}}, {"type": "Feature", "properties": {"norad_id": 66491, "name": "STARLINK-35663", "group": "last-30-days", "lat": -5.7193761660823625, "lon": -38.40621253664554, "alt_km": 415.45389914359566, "timestamp": "2025-12-10T23:33:11.622220+00:00", "meta": {"OBJECT_NAME": "STARLINK-35663", "OBJECT_ID": "2025-263G", "EPOCH": "2025-12-10T14:00:03.000384", "MEAN_MOTION": 15.50648162, "ECCENTRICITY": 0.00014464, "INCLINATION": 43.0006, "RA_OF_ASC_NODE": 137.7525, "ARG_OF_PERICENTER": 262.2067, "MEAN_ANOMALY": 221.6978, "EPHEMERIS_TYPE": 0, "CLASSIFICATION_TYPE": "U", "NORAD_CAT_ID": 66491, "ELEMENT_SET_NO": 999, "REV_AT_EPOCH": 528, "BSTAR": -0.0027498432, "MEAN_MOTION_DOT": -0.00158824, "MEAN_MOTION_DDOT": 0}, "tle": {"line1": "1 66491U 25263G   25344.58336806 -.00158824  00000+0 -27498-2 0  9992", "line2": "2 66491  43.0006 137.7525 0001446 262.2067 221.6978 15.50648162  5289"}}, "geometry": {"type": "Point", "coordinates": [-38.40621253664554, -5.7193761660823625]}}, {"type": "Feature", "properties": {"norad_id": 66492, "name": "STARLINK-35673", "group": "last-30-days", "lat": 11.336467625563342, "lon": -56.93882799068264, "alt_km": 437.8411366348282, "timestamp": "2025-12-10T23:33:11.622230+00:00", "meta": {"OBJECT_NAME": "STARLINK-35673", "OBJECT_ID": "2025-263H", "EPOCH": "2025-12-10T14:00:03.000384", "MEAN_MOTION": 15.44143179, "ECCENTRICITY": 0.00016371, "INCLINATION": 43.0007, "RA_OF_ASC_NODE": 137.7877, "ARG_OF_PERICENTER": 277.2656, "MEAN_ANOMALY": 192.0308, "EPHEMERIS_TYPE": 0, "CLASSIFICATION_TYPE": "U", "NORAD_CAT_ID": 66492, "ELEMENT_SET_NO": 999, "REV_AT_EPOCH": 528, "BSTAR": -0.049215236, "MEAN_MOTION_DOT": -0.0205129, "MEAN_MOTION_DDOT": 0}, "tle": {"line1": "1 66492U 25263H   25344.58336806 -.02051290  00000+0 -49215-1 0  9994", "line2": "2 66492  43.0007 137.7877 0001637 277.2656 192.0308 15.44143179  5282"}}, "geometry": {"type": "Point", "coordinates": [-56.93882799068264, 11.336467625563342]}}, {"type": "Feature", "properties": {"norad_id": 66493, "name": "STARLINK-35597", "group": "last-30-days", "lat": -8.307439546742389, "lon": -35.572236011084044, "alt_km": 415.69631099369326, "timestamp": "2025-12-10T23:33:11.622241+00:00", "meta": {"OBJECT_NAME": "STARLINK-35597", "OBJECT_ID": "2025-263J", "EPOCH": "2025-12-10T14:00:03.000384", "MEAN_MOTION": 15.50628588, "ECCENTRICITY": 0.00014523, "INCLINATION": 43.0006, "RA_OF_ASC_NODE": 137.7414, "ARG_OF_PERICENTER": 263.6027, "MEAN_ANOMALY": 224.1421, "EPHEMERIS_TYPE": 0, "CLASSIFICATION_TYPE": "U", "NORAD_CAT_ID": 66493, "ELEMENT_SET_NO": 999, "REV_AT_EPOCH": 528, "BSTAR": -0.0021999466, "MEAN_MOTION_DOT": -0.00127547, "MEAN_MOTION_DDOT": 0}, "tle": {"line1": "1 66493U 25263J   25344.58336806 -.00127547  00000+0 -21999-2 0  9992", "line2": "2 66493  43.0006 137.7414 0001452 263.6027 224.1421 15.50628588  5287"}}, "geometry": {"type": "Point", "coordinates": [-35.572236011084044, -8.307439546742389]}}, {"type": "Feature", "properties": {"norad_id": 66494, "name": "STARLINK-35689", "group": "last-30-days", "lat": -4.414978992395345, "lon": -39.81939257607304, "alt_km": 415.3070851982302, "timestamp": "2025-12-10T23:33:11.622252+00:00", "meta": {"OBJECT_NAME": "STARLINK-35689", "OBJECT_ID": "2025-263K", "EPOCH": "2025-12-10T14:00:03.000384", "MEAN_MOTION": 15.50626348, "ECCENTRICITY": 0.00015005, "INCLINATION": 43.0006, "RA_OF_ASC_NODE": 137.7566, "ARG_OF_PERICENTER": 262.4955, "MEAN_ANOMALY": 219.4974, "EPHEMERIS_TYPE": 0, "CLASSIFICATION_TYPE": "U", "NORAD_CAT_ID": 66494, "ELEMENT_SET_NO": 999, "REV_AT_EPOCH": 528, "BSTAR": -0.0021133652, "MEAN_MOTION_DOT": -0.00122608, "MEAN_MOTION_DDOT": 0}, "tle": {"line1": "1 66494U 25263K   25344.58336806 -.00122608  00000+0 -21134-2 0  9997", "line2": "2 66494  43.0006 137.7566 0001500 262.4955 219.4974 15.50626348  5289"}}, "geometry": {"type": "Point", "coordinates": [-39.81939257607304, -4.414978992395345]}}]}